{
  "norad_id": 54103,
  "name": "STARLINK-5200",
  "history": [
    {
      "epoch": "2026-03-28T19:19:23.984544",
      "apogee_km": 540.7144830870502,
      "perigee_km": 538.7967049021418,
      "latitude_deg": 43.54478602741089,
      "longitude_deg": 27.59331616014242,
      "semi_major_axis_km": 6917.892593994596,
      "eccentricity": 0.00013861,
      "inclination_deg": 53.2171,
      "raan_deg": 228.0935,
      "arg_perigee_deg": 100.7556,
      "mean_anomaly_deg": 259.3592,
      "mean_motion_rev_day": 15.08836007
    }
  ]
}